SENTINEL-6              
1 46984U 20086A   24126.83641371 -.00000048  00000+0  57229-4 0  9996
2 46984  66.0411 299.2323 0007754 270.6797  89.3329 12.80930734161405
